CCSDS_OMM_VERS = 2.0
CREATION_DATE  = 
ORIGINATOR     = 

OBJECT_NAME    = UNKNOWN
OBJECT_ID      = 
CENTER_NAME    = EARTH
REF_FRAME      = TEME
TIME_SYSTEM    = UTC
MEAN_ELEMENT_THEORY = SGP/SGP4

EPOCH          = 2025-11-15T13:17:57.789312
MEAN_MOTION    = 14.36170170
ECCENTRICITY   = .0014016
INCLINATION    = 74.0493
RA_OF_ASC_NODE = 64.4739
ARG_OF_PERICENTER = 133.4339
MEAN_ANOMALY   = 226.7983

EPHEMERIS_TYPE = 0
CLASSIFICATION_TYPE = U
NORAD_CAT_ID   = 89003
ELEMENT_SET_NO = 999
REV_AT_EPOCH   = 62764
BSTAR          = .25466E-3
MEAN_MOTION_DOT = .717E-5
MEAN_MOTION_DDOT = 0

CCSDS_OMM_VERS = 2.0
CREATION_DATE  = 
ORIGINATOR     = 

OBJECT_NAME    = UNKNOWN
OBJECT_ID      = 
CENTER_NAME    = EARTH
REF_FRAME      = TEME
TIME_SYSTEM    = UTC
MEAN_ELEMENT_THEORY = SGP/SGP4

EPOCH          = 2025-11-19T23:16:49.942272
MEAN_MOTION    = 14.45424291
ECCENTRICITY   = .0193133
INCLINATION    = 97.8392
RA_OF_ASC_NODE = 154.8248
ARG_OF_PERICENTER = 101.6264
MEAN_ANOMALY   = 260.6676

EPHEMERIS_TYPE = 0
CLASSIFICATION_TYPE = U
NORAD_CAT_ID   = 89005
ELEMENT_SET_NO = 999
REV_AT_EPOCH   = 53080
BSTAR          = .54135E-3
MEAN_MOTION_DOT = .2355E-4
MEAN_MOTION_DDOT = 0

CCSDS_OMM_VERS = 2.0
CREATION_DATE  = 
ORIGINATOR     = 

OBJECT_NAME    = UNKNOWN
OBJECT_ID      = 
CENTER_NAME    = EARTH
REF_FRAME      = TEME
TIME_SYSTEM    = UTC
MEAN_ELEMENT_THEORY = SGP/SGP4

EPOCH          = 2025-11-18T11:02:42.499104
MEAN_MOTION    = 14.94014581
ECCENTRICITY   = .0024492
INCLINATION    = 98.0520
RA_OF_ASC_NODE = 221.1018
ARG_OF_PERICENTER = 47.6725
MEAN_ANOMALY   = 312.6564

EPHEMERIS_TYPE = 0
CLASSIFICATION_TYPE = U
NORAD_CAT_ID   = 89029
ELEMENT_SET_NO = 999
REV_AT_EPOCH   = 64745
BSTAR          = .64556E-3
MEAN_MOTION_DOT = .6866E-4
MEAN_MOTION_DDOT = 0

CCSDS_OMM_VERS = 2.0
CREATION_DATE  = 
ORIGINATOR     = 

OBJECT_NAME    = UNKNOWN
OBJECT_ID      = 
CENTER_NAME    = EARTH
REF_FRAME      = TEME
TIME_SYSTEM    = UTC
MEAN_ELEMENT_THEORY = SGP/SGP4

EPOCH          = 2025-11-20T14:47:36.257568
MEAN_MOTION    = 13.03997701
ECCENTRICITY   = .0146742
INCLINATION    = 100.4595
RA_OF_ASC_NODE = 262.0263
ARG_OF_PERICENTER = 157.1191
MEAN_ANOMALY   = 203.6541

EPHEMERIS_TYPE = 0
CLASSIFICATION_TYPE = U
NORAD_CAT_ID   = 89101
ELEMENT_SET_NO = 999
REV_AT_EPOCH   = 55196
BSTAR          = -.12782E-3
MEAN_MOTION_DOT = -.86E-6
MEAN_MOTION_DDOT = 0

CCSDS_OMM_VERS = 2.0
CREATION_DATE  = 
ORIGINATOR     = 

OBJECT_NAME    = UNKNOWN
OBJECT_ID      = 
CENTER_NAME    = EARTH
REF_FRAME      = TEME
TIME_SYSTEM    = UTC
MEAN_ELEMENT_THEORY = SGP/SGP4

EPOCH          = 2025-11-19T14:58:48.573984
MEAN_MOTION    = 8.86278390
ECCENTRICITY   = .2931675
INCLINATION    = 63.4090
RA_OF_ASC_NODE = 77.2568
ARG_OF_PERICENTER = 319.6397
MEAN_ANOMALY   = 21.9566

EPHEMERIS_TYPE = 0
CLASSIFICATION_TYPE = U
NORAD_CAT_ID   = 89132
ELEMENT_SET_NO = 999
REV_AT_EPOCH   = 32306
BSTAR          = .35671E-2
MEAN_MOTION_DOT = .262E-4
MEAN_MOTION_DDOT = 0

CCSDS_OMM_VERS = 2.0
CREATION_DATE  = 
ORIGINATOR     = 

OBJECT_NAME    = UNKNOWN
OBJECT_ID      = 
CENTER_NAME    = EARTH
REF_FRAME      = TEME
TIME_SYSTEM    = UTC
MEAN_ELEMENT_THEORY = SGP/SGP4

EPOCH          = 2025-11-20T06:42:38.569248
MEAN_MOTION    = 14.62777610
ECCENTRICITY   = .0094657
INCLINATION    = 98.2457
RA_OF_ASC_NODE = 253.0171
ARG_OF_PERICENTER = 124.9227
MEAN_ANOMALY   = 236.0913

EPHEMERIS_TYPE = 0
CLASSIFICATION_TYPE = U
NORAD_CAT_ID   = 89146
ELEMENT_SET_NO = 999
REV_AT_EPOCH   = 62559
BSTAR          = .60576E-3
MEAN_MOTION_DOT = .3244E-4
MEAN_MOTION_DDOT = 0

CCSDS_OMM_VERS = 2.0
CREATION_DATE  = 
ORIGINATOR     = 

OBJECT_NAME    = UNKNOWN
OBJECT_ID      = 
CENTER_NAME    = EARTH
REF_FRAME      = TEME
TIME_SYSTEM    = UTC
MEAN_ELEMENT_THEORY = SGP/SGP4

EPOCH          = 2025-11-20T07:05:18.405024
MEAN_MOTION    = 15.35338242
ECCENTRICITY   = .0041876
INCLINATION    = 97.6608
RA_OF_ASC_NODE = 339.0522
ARG_OF_PERICENTER = 139.3536
MEAN_ANOMALY   = 221.0845

EPHEMERIS_TYPE = 0
CLASSIFICATION_TYPE = U
NORAD_CAT_ID   = 89161
ELEMENT_SET_NO = 999
REV_AT_EPOCH   = 54513
BSTAR          = .20818E-2
MEAN_MOTION_DOT = .74045E-3
MEAN_MOTION_DDOT = 0

CCSDS_OMM_VERS = 2.0
CREATION_DATE  = 
ORIGINATOR     = 

OBJECT_NAME    = UNKNOWN
OBJECT_ID      = 
CENTER_NAME    = EARTH
REF_FRAME      = TEME
TIME_SYSTEM    = UTC
MEAN_ELEMENT_THEORY = SGP/SGP4

EPOCH          = 2025-11-06T13:25:17.304384
MEAN_MOTION    = 14.44728547
ECCENTRICITY   = .0299972
INCLINATION    = 82.0637
RA_OF_ASC_NODE = 255.8555
ARG_OF_PERICENTER = 32.7390
MEAN_ANOMALY   = 329.2000

EPHEMERIS_TYPE = 0
CLASSIFICATION_TYPE = U
NORAD_CAT_ID   = 89172
ELEMENT_SET_NO = 999
REV_AT_EPOCH   = 59666
BSTAR          = .50523E-2
MEAN_MOTION_DOT = .30689E-3
MEAN_MOTION_DDOT = 0

CCSDS_OMM_VERS = 2.0
CREATION_DATE  = 
ORIGINATOR     = 

OBJECT_NAME    = UNKNOWN
OBJECT_ID      = 
CENTER_NAME    = EARTH
REF_FRAME      = TEME
TIME_SYSTEM    = UTC
MEAN_ELEMENT_THEORY = SGP/SGP4

EPOCH          = 2025-11-14T14:52:05.220768
MEAN_MOTION    = 13.73719805
ECCENTRICITY   = .0031442
INCLINATION    = 82.9185
RA_OF_ASC_NODE = 289.9724
ARG_OF_PERICENTER = 219.0179
MEAN_ANOMALY   = 140.8708

EPHEMERIS_TYPE = 0
CLASSIFICATION_TYPE = U
NORAD_CAT_ID   = 89177
ELEMENT_SET_NO = 999
REV_AT_EPOCH   = 5896
BSTAR          = .15739E-3
MEAN_MOTION_DOT = .162E-5
MEAN_MOTION_DDOT = 0

CCSDS_OMM_VERS = 2.0
CREATION_DATE  = 
ORIGINATOR     = 

OBJECT_NAME    = UNKNOWN
OBJECT_ID      = 
CENTER_NAME    = EARTH
REF_FRAME      = TEME
TIME_SYSTEM    = UTC
MEAN_ELEMENT_THEORY = SGP/SGP4

EPOCH          = 2025-11-18T17:12:38.910528
MEAN_MOTION    = 13.81548073
ECCENTRICITY   = .0129555
INCLINATION    = 99.2170
RA_OF_ASC_NODE = 234.3442
ARG_OF_PERICENTER = 220.6713
MEAN_ANOMALY   = 138.4709

EPHEMERIS_TYPE = 0
CLASSIFICATION_TYPE = U
NORAD_CAT_ID   = 89183
ELEMENT_SET_NO = 999
REV_AT_EPOCH   = 60365
BSTAR          = .58072E-3
MEAN_MOTION_DOT = .616E-5
MEAN_MOTION_DDOT = 0

CCSDS_OMM_VERS = 2.0
CREATION_DATE  = 
ORIGINATOR     = 

OBJECT_NAME    = UNKNOWN
OBJECT_ID      = 
CENTER_NAME    = EARTH
REF_FRAME      = TEME
TIME_SYSTEM    = UTC
MEAN_ELEMENT_THEORY = SGP/SGP4

EPOCH          = 2025-11-17T20:57:31.741920
MEAN_MOTION    = 14.79449929
ECCENTRICITY   = .0007988
INCLINATION    = 98.3905
RA_OF_ASC_NODE = 185.4832
ARG_OF_PERICENTER = 212.0404
MEAN_ANOMALY   = 148.0321

EPHEMERIS_TYPE = 0
CLASSIFICATION_TYPE = U
NORAD_CAT_ID   = 89184
ELEMENT_SET_NO = 999
REV_AT_EPOCH   = 48849
BSTAR          = .34872E-2
MEAN_MOTION_DOT = .26086E-3
MEAN_MOTION_DDOT = 0

CCSDS_OMM_VERS = 2.0
CREATION_DATE  = 
ORIGINATOR     = 

OBJECT_NAME    = UNKNOWN
OBJECT_ID      = 
CENTER_NAME    = EARTH
REF_FRAME      = TEME
TIME_SYSTEM    = UTC
MEAN_ELEMENT_THEORY = SGP/SGP4

EPOCH          = 2025-11-17T09:24:21.103488
MEAN_MOTION    = 13.91554302
ECCENTRICITY   = .0227174
INCLINATION    = 98.7806
RA_OF_ASC_NODE = 195.8652
ARG_OF_PERICENTER = 195.9547
MEAN_ANOMALY   = 163.4375

EPHEMERIS_TYPE = 0
CLASSIFICATION_TYPE = U
NORAD_CAT_ID   = 89213
ELEMENT_SET_NO = 999
REV_AT_EPOCH   = 44914
BSTAR          = .51499E-3
MEAN_MOTION_DOT = .764E-5
MEAN_MOTION_DDOT = 0

