UNKNOWN                 
1 89003U          25319.55414108  .00000717  00000+0  25466-3 0  9998
2 89003  74.0493  64.4739 0014016 133.4339 226.7983 14.36170170627642
UNKNOWN                 
1 89005U          25323.97002248  .00002355  00000+0  54135-3 0  9994
2 89005  97.8392 154.8248 0193133 101.6264 260.6676 14.45424291530809
UNKNOWN                 
1 89029U          25322.46021411  .00006866  00000+0  64556-3 0  9995
2 89029  98.0520 221.1018 0024492  47.6725 312.6564 14.94014581647451
UNKNOWN                 
1 89101U          25324.61639187 -.00000086  00000+0 -12782-3 0  9994
2 89101 100.4595 262.0263 0146742 157.1191 203.6541 13.03997701551962
UNKNOWN                 
1 89132U          25323.62417331  .00002620  00000+0  35671-2 0  9998
2 89132  63.4090  77.2568 2931675 319.6397  21.9566  8.86278390323067
UNKNOWN                 
1 89146U          25324.27961307  .00003244  00000+0  60576-3 0  9998
2 89146  98.2457 253.0171 0094657 124.9227 236.0913 14.62777610625594
UNKNOWN                 
1 89161U          25324.29535191  .00074045  00000+0  20818-2 0  9996
2 89161  97.6608 339.0522 0041876 139.3536 221.0845 15.35338242545139
UNKNOWN                 
1 89172U          25310.55922806  .00030689  00000+0  50523-2 0  9997
2 89172  82.0637 255.8555 0299972  32.7390 329.2000 14.44728547596666
UNKNOWN                 
1 89177U          25318.61950487  .00000162  00000+0  15739-3 0  9997
2 89177  82.9185 289.9724 0031442 219.0179 140.8708 13.73719805 58961
UNKNOWN                 
1 89183U          25322.71711702  .00000616  00000+0  58072-3 0  9996
2 89183  99.2170 234.3442 0129555 220.6713 138.4709 13.81548073603651
UNKNOWN                 
1 89184U          25321.87328405  .00026086  00000+0  34872-2 0  9997
2 89184  98.3905 185.4832 0007988 212.0404 148.0321 14.79449929488492
UNKNOWN                 
1 89213U          25321.39191092  .00000764  00000+0  51499-3 0  9997
2 89213  98.7806 195.8652 0227174 195.9547 163.4375 13.91554302449146
